{"fetched_at":"2026-03-30T06:02:59Z","count":15439,"tles":[{"name":"STARLINK-4026","line1":"1 52600U 22052C   26087.67039254 -.00000081  00000+0  12992-4 0  9999","line2":"2 52600  53.2162 193.9144 0001237  94.5888 265.5245 15.08837921214527","category":"Starlink"}]}